[{"OBJECT_NAME":"STARLINK-31573","OBJECT_ID":"2024-057Q","EPOCH":"2026-03-09T08:39:12.852288","MEAN_MOTION":15.27550253,"ECCENTRICITY":0.00014389,"INCLINATION":43.0023,"RA_OF_ASC_NODE":188.5038,"ARG_OF_PERICENTER":261.047,"MEAN_ANOMALY":99.0218,"EPHEMERIS_TYPE":0,"CLASSIFICATION_TYPE":"U","NORAD_CAT_ID":59334,"ELEMENT_SET_NO":999,"REV_AT_EPOCH":10979,"BSTAR":0.00010866706,"MEAN_MOTION_DOT":2.727e-5,"MEAN_MOTION_DDOT":0},{"OBJECT_NAME":"DELTA 1 DEB","OBJECT_ID":"1977-065EL","EPOCH":"2026-03-09T10:51:18.661248","MEAN_MOTION":14.3286909,"ECCENTRICITY":0.0430373,"INCLINATION":29.2548,"RA_OF_ASC_NODE":97.596,"ARG_OF_PERICENTER":297.4276,"MEAN_ANOMALY":58.3168,"EPHEMERIS_TYPE":0,"CLASSIFICATION_TYPE":"U","NORAD_CAT_ID":10478,"ELEMENT_SET_NO":999,"REV_AT_EPOCH":42332,"BSTAR":0.0017306922,"MEAN_MOTION_DOT":0.00013988,"MEAN_MOTION_DDOT":0}]
